<?xml version="1.0" encoding="UTF-8"?>
<ndm xmlns:xsi="http://www.w3.org/2001/XMLSchema-instance" xsi:noNamespaceSchemaLocation="https://sanaregistry.org/r/ndmxml_unqualified/ndmxml-2.0.0-master-2.0.xsd">
<omm id="CCSDS_OMM_VERS" version="2.0">
<header><CREATION_DATE/><ORIGINATOR/></header><body><segment><metadata><OBJECT_NAME>KUIPER-00125</OBJECT_NAME><OBJECT_ID>2025-228H</OBJECT_ID><CENTER_NAME>EARTH</CENTER_NAME><REF_FRAME>TEME</REF_FRAME><TIME_SYSTEM>UTC</TIME_SYSTEM><MEAN_ELEMENT_THEORY>SGP4</MEAN_ELEMENT_THEORY></metadata><data><meanElements><EPOCH>2026-01-24T04:00:00.999936</EPOCH><MEAN_MOTION>15.00563003</MEAN_MOTION><ECCENTRICITY>.0003088</ECCENTRICITY><INCLINATION>51.9138</INCLINATION><RA_OF_ASC_NODE>178.4674</RA_OF_ASC_NODE><ARG_OF_PERICENTER>165.9394</ARG_OF_PERICENTER><MEAN_ANOMALY>145.8816</MEAN_ANOMALY></meanElements><tleParameters><EPHEMERIS_TYPE>0</EPHEMERIS_TYPE><CLASSIFICATION_TYPE>U</CLASSIFICATION_TYPE><NORAD_CAT_ID>65954</NORAD_CAT_ID><ELEMENT_SET_NO>999</ELEMENT_SET_NO><REV_AT_EPOCH>487</REV_AT_EPOCH><BSTAR>-.76096E-1</BSTAR><MEAN_MOTION_DOT>-.898643E-2</MEAN_MOTION_DOT><MEAN_MOTION_DDOT>0</MEAN_MOTION_DDOT></tleParameters></data></segment></body></omm>
<omm id="CCSDS_OMM_VERS" version="2.0">
<header><CREATION_DATE/><ORIGINATOR/></header><body><segment><metadata><OBJECT_NAME>KUIPER-00126</OBJECT_NAME><OBJECT_ID>2025-228J</OBJECT_ID><CENTER_NAME>EARTH</CENTER_NAME><REF_FRAME>TEME</REF_FRAME><TIME_SYSTEM>UTC</TIME_SYSTEM><MEAN_ELEMENT_THEORY>SGP4</MEAN_ELEMENT_THEORY></metadata><data><meanElements><EPOCH>2026-01-23T21:20:29.630976</EPOCH><MEAN_MOTION>14.79918914</MEAN_MOTION><ECCENTRICITY>.0000547</ECCENTRICITY><INCLINATION>51.8973</INCLINATION><RA_OF_ASC_NODE>198.7135</RA_OF_ASC_NODE><ARG_OF_PERICENTER>107.5539</ARG_OF_PERICENTER><MEAN_ANOMALY>252.5483</MEAN_ANOMALY></meanElements><tleParameters><EPHEMERIS_TYPE>0</EPHEMERIS_TYPE><CLASSIFICATION_TYPE>U</CLASSIFICATION_TYPE><NORAD_CAT_ID>65955</NORAD_CAT_ID><ELEMENT_SET_NO>999</ELEMENT_SET_NO><REV_AT_EPOCH>1659</REV_AT_EPOCH><BSTAR>.42362E-3</BSTAR><MEAN_MOTION_DOT>.3009E-4</MEAN_MOTION_DOT><MEAN_MOTION_DDOT>0</MEAN_MOTION_DDOT></tleParameters></data></segment></body></omm>
<omm id="CCSDS_OMM_VERS" version="2.0">
<header><CREATION_DATE/><ORIGINATOR/></header><body><segment><metadata><OBJECT_NAME>KUIPER-00127</OBJECT_NAME><OBJECT_ID>2025-228K</OBJECT_ID><CENTER_NAME>EARTH</CENTER_NAME><REF_FRAME>TEME</REF_FRAME><TIME_SYSTEM>UTC</TIME_SYSTEM><MEAN_ELEMENT_THEORY>SGP4</MEAN_ELEMENT_THEORY></metadata><data><meanElements><EPOCH>2026-01-24T03:50:32.220096</EPOCH><MEAN_MOTION>14.98241438</MEAN_MOTION><ECCENTRICITY>.0005238</ECCENTRICITY><INCLINATION>51.8941</INCLINATION><RA_OF_ASC_NODE>190.7211</RA_OF_ASC_NODE><ARG_OF_PERICENTER>203.8912</ARG_OF_PERICENTER><MEAN_ANOMALY>156.1816</MEAN_ANOMALY></meanElements><tleParameters><EPHEMERIS_TYPE>0</EPHEMERIS_TYPE><CLASSIFICATION_TYPE>U</CLASSIFICATION_TYPE><NORAD_CAT_ID>65956</NORAD_CAT_ID><ELEMENT_SET_NO>999</ELEMENT_SET_NO><REV_AT_EPOCH>1673</REV_AT_EPOCH><BSTAR>.77584E-3</BSTAR><MEAN_MOTION_DOT>.907E-4</MEAN_MOTION_DOT><MEAN_MOTION_DDOT>0</MEAN_MOTION_DDOT></tleParameters></data></segment></body></omm>
<omm id="CCSDS_OMM_VERS" version="2.0">
<header><CREATION_DATE/><ORIGINATOR/></header><body><segment><metadata><OBJECT_NAME>KUIPER-00128</OBJECT_NAME><OBJECT_ID>2025-228L</OBJECT_ID><CENTER_NAME>EARTH</CENTER_NAME><REF_FRAME>TEME</REF_FRAME><TIME_SYSTEM>UTC</TIME_SYSTEM><MEAN_ELEMENT_THEORY>SGP4</MEAN_ELEMENT_THEORY></metadata><data><meanElements><EPOCH>2026-01-23T17:29:10.396320</EPOCH><MEAN_MOTION>14.79938254</MEAN_MOTION><ECCENTRICITY>.00007208</ECCENTRICITY><INCLINATION>51.8997</INCLINATION><RA_OF_ASC_NODE>191.9346</RA_OF_ASC_NODE><ARG_OF_PERICENTER>76.4357</ARG_OF_PERICENTER><MEAN_ANOMALY>283.6685</MEAN_ANOMALY></meanElements><tleParameters><EPHEMERIS_TYPE>0</EPHEMERIS_TYPE><CLASSIFICATION_TYPE>U</CLASSIFICATION_TYPE><NORAD_CAT_ID>65957</NORAD_CAT_ID><ELEMENT_SET_NO>999</ELEMENT_SET_NO><REV_AT_EPOCH>1667</REV_AT_EPOCH><BSTAR>.68641911E-3</BSTAR><MEAN_MOTION_DOT>.5016E-4</MEAN_MOTION_DOT><MEAN_MOTION_DDOT>0</MEAN_MOTION_DDOT></tleParameters></data></segment></body></omm>
<omm id="CCSDS_OMM_VERS" version="2.0">
<header><CREATION_DATE/><ORIGINATOR/></header><body><segment><metadata><OBJECT_NAME>KUIPER-00129</OBJECT_NAME><OBJECT_ID>2025-228M</OBJECT_ID><CENTER_NAME>EARTH</CENTER_NAME><REF_FRAME>TEME</REF_FRAME><TIME_SYSTEM>UTC</TIME_SYSTEM><MEAN_ELEMENT_THEORY>SGP4</MEAN_ELEMENT_THEORY></metadata><data><meanElements><EPOCH>2026-01-24T04:00:00.999936</EPOCH><MEAN_MOTION>14.80649040</MEAN_MOTION><ECCENTRICITY>.0000833</ECCENTRICITY><INCLINATION>51.8995</INCLINATION><RA_OF_ASC_NODE>184.9882</RA_OF_ASC_NODE><ARG_OF_PERICENTER>31.9095</ARG_OF_PERICENTER><MEAN_ANOMALY>292.4075</MEAN_ANOMALY></meanElements><tleParameters><EPHEMERIS_TYPE>0</EPHEMERIS_TYPE><CLASSIFICATION_TYPE>U</CLASSIFICATION_TYPE><NORAD_CAT_ID>65958</NORAD_CAT_ID><ELEMENT_SET_NO>999</ELEMENT_SET_NO><REV_AT_EPOCH>564</REV_AT_EPOCH><BSTAR>-.32439E-2</BSTAR><MEAN_MOTION_DOT>-.25283E-3</MEAN_MOTION_DOT><MEAN_MOTION_DDOT>0</MEAN_MOTION_DDOT></tleParameters></data></segment></body></omm>
<omm id="CCSDS_OMM_VERS" version="2.0">
<header><CREATION_DATE/><ORIGINATOR/></header><body><segment><metadata><OBJECT_NAME>KUIPER-00130</OBJECT_NAME><OBJECT_ID>2025-228N</OBJECT_ID><CENTER_NAME>EARTH</CENTER_NAME><REF_FRAME>TEME</REF_FRAME><TIME_SYSTEM>UTC</TIME_SYSTEM><MEAN_ELEMENT_THEORY>SGP4</MEAN_ELEMENT_THEORY></metadata><data><meanElements><EPOCH>2026-01-24T00:00:01.999296</EPOCH><MEAN_MOTION>14.79975235</MEAN_MOTION><ECCENTRICITY>.0000779</ECCENTRICITY><INCLINATION>51.9009</INCLINATION><RA_OF_ASC_NODE>188.2170</RA_OF_ASC_NODE><ARG_OF_PERICENTER>57.0623</ARG_OF_PERICENTER><MEAN_ANOMALY>296.2210</MEAN_ANOMALY></meanElements><tleParameters><EPHEMERIS_TYPE>0</EPHEMERIS_TYPE><CLASSIFICATION_TYPE>U</CLASSIFICATION_TYPE><NORAD_CAT_ID>65959</NORAD_CAT_ID><ELEMENT_SET_NO>999</ELEMENT_SET_NO><REV_AT_EPOCH>582</REV_AT_EPOCH><BSTAR>-.87854E-3</BSTAR><MEAN_MOTION_DOT>-.6918E-4</MEAN_MOTION_DOT><MEAN_MOTION_DDOT>0</MEAN_MOTION_DDOT></tleParameters></data></segment></body></omm>
<omm id="CCSDS_OMM_VERS" version="2.0">
<header><CREATION_DATE/><ORIGINATOR/></header><body><segment><metadata><OBJECT_NAME>KUIPER-00134</OBJECT_NAME><OBJECT_ID>2025-228P</OBJECT_ID><CENTER_NAME>EARTH</CENTER_NAME><REF_FRAME>TEME</REF_FRAME><TIME_SYSTEM>UTC</TIME_SYSTEM><MEAN_ELEMENT_THEORY>SGP4</MEAN_ELEMENT_THEORY></metadata><data><meanElements><EPOCH>2026-01-23T19:26:11.763168</EPOCH><MEAN_MOTION>15.37000040</MEAN_MOTION><ECCENTRICITY>.00071539</ECCENTRICITY><INCLINATION>51.8762</INCLINATION><RA_OF_ASC_NODE>177.5160</RA_OF_ASC_NODE><ARG_OF_PERICENTER>155.7649</ARG_OF_PERICENTER><MEAN_ANOMALY>204.3676</MEAN_ANOMALY></meanElements><tleParameters><EPHEMERIS_TYPE>0</EPHEMERIS_TYPE><CLASSIFICATION_TYPE>U</CLASSIFICATION_TYPE><NORAD_CAT_ID>65960</NORAD_CAT_ID><ELEMENT_SET_NO>999</ELEMENT_SET_NO><REV_AT_EPOCH>1688</REV_AT_EPOCH><BSTAR>.14608826E-2</BSTAR><MEAN_MOTION_DOT>.53731E-3</MEAN_MOTION_DOT><MEAN_MOTION_DDOT>0</MEAN_MOTION_DDOT></tleParameters></data></segment></body></omm>
<omm id="CCSDS_OMM_VERS" version="2.0">
<header><CREATION_DATE/><ORIGINATOR/></header><body><segment><metadata><OBJECT_NAME>KUIPER-00135</OBJECT_NAME><OBJECT_ID>2025-228Q</OBJECT_ID><CENTER_NAME>EARTH</CENTER_NAME><REF_FRAME>TEME</REF_FRAME><TIME_SYSTEM>UTC</TIME_SYSTEM><MEAN_ELEMENT_THEORY>SGP4</MEAN_ELEMENT_THEORY></metadata><data><meanElements><EPOCH>2026-01-24T04:00:00.999936</EPOCH><MEAN_MOTION>14.79974196</MEAN_MOTION><ECCENTRICITY>.0000734</ECCENTRICITY><INCLINATION>51.9006</INCLINATION><RA_OF_ASC_NODE>187.5444</RA_OF_ASC_NODE><ARG_OF_PERICENTER>110.8639</ARG_OF_PERICENTER><MEAN_ANOMALY>230.3755</MEAN_ANOMALY></meanElements><tleParameters><EPHEMERIS_TYPE>0</EPHEMERIS_TYPE><CLASSIFICATION_TYPE>U</CLASSIFICATION_TYPE><NORAD_CAT_ID>65961</NORAD_CAT_ID><ELEMENT_SET_NO>999</ELEMENT_SET_NO><REV_AT_EPOCH>503</REV_AT_EPOCH><BSTAR>-.21592E-2</BSTAR><MEAN_MOTION_DOT>-.16657E-3</MEAN_MOTION_DOT><MEAN_MOTION_DDOT>0</MEAN_MOTION_DDOT></tleParameters></data></segment></body></omm>

</ndm>
